NORAD_CAT_ID,OBJECT_NAME,OBJECT_TYPE,EPOCH,MEAN_MOTION,ECCENTRICITY,INCLINATION,RA_OF_ASC_NODE,ARG_OF_PERICENTER,MEAN_ANOMALY,BSTAR,MEAN_MOTION_DOT,MEAN_MOTION_DDOT,TLE_LINE0,TLE_LINE1,TLE_LINE2,SEMIMAJOR_AXIS,PERIOD,APOGEE,PERIGEE,DECAYED
53032.0,STARLINK-4115,PAYLOAD,2023-12-20 15:59:22,15.08823231,0.0001419,53.2167,120.4569,77.0245,283.0906,0.00015605,2.195e-05,0.0,0 STARLINK-4115,1 53032U 22076AY  23354.66623350  .00002195  00000-0  15605-3 0  9995,2 53032  53.2167 120.4569 0001419  77.0245 283.0906 15.08823231 81174,6917.932,95.439,540.778,538.815,0.0
53032.0,STARLINK-4115,PAYLOAD,2023-12-21 14:14:46,15.08822475,0.0001592,53.217,116.2942,57.5496,302.565,0.00026647,3.953e-05,0.0,0 STARLINK-4115,1 53032U 22076AY  23355.59359503  .00003953  00000-0  26647-3 0  9995,2 53032  53.2170 116.2942 0001592  57.5496 302.5650 15.08822475 80844,6917.934,95.439,540.9,538.698,0.0
53032.0,STARLINK-4115,PAYLOAD,2023-12-21 15:50:09,15.08810412,0.0001673,53.2175,115.9954,64.3466,295.7699,0.00049131,7.534e-05,0.0,0 STARLINK-4115,1 53032U 22076AY  23355.65983601  .00007534  00000-0  49131-3 0  9996,2 53032  53.2175 115.9954 0001673  64.3466 295.7699 15.08810412 80856,6917.971,95.439,540.993,538.678,0.0
53032.0,STARLINK-4115,PAYLOAD,2023-12-22 10:54:47,15.08838606,0.0001938,53.2173,112.4274,47.6429,312.4727,8.6947e-05,1.096e-05,0.0,0 STARLINK-4115,1 53032U 22076AY  23356.45471482  .00001096  00000-0  86947-4 0  9998,2 53032  53.2173 112.4274 0001938  47.6429 312.4727 15.08838606 81448,6917.885,95.438,541.09,538.409,0.0
53032.0,STARLINK-4115,PAYLOAD,2023-12-22 14:05:33,15.08844439,0.0001349,53.2165,111.8344,71.1306,288.9833,0.00012937,1.772e-05,0.0,0 STARLINK-4115,1 53032U 22076AY  23356.58718827  .00001772  00000-0  12937-3 0  9997,2 53032  53.2165 111.8344 0001349  71.1306 288.9833 15.08844439 80997,6917.867,95.437,540.665,538.799,0.0
53032.0,STARLINK-4115,PAYLOAD,2023-12-22 15:40:55,15.08848103,0.000148,53.2174,111.5351,68.7685,291.3465,0.00016292,2.306e-05,0.0,0 STARLINK-4115,1 53032U 22076AY  23356.65342537  .00002306  00000-0  16292-3 0  9998,2 53032  53.2174 111.5351 0001480  68.7685 291.3465 15.08848103 81475,6917.856,95.437,540.744,538.697,0.0
53032.0,STARLINK-4115,PAYLOAD,2023-12-23 12:20:57,15.08843167,0.0001533,53.2175,107.6711,73.1588,286.9572,1.8531e-05,7e-08,0.0,0 STARLINK-4115,1 53032U 22076AY  23357.51455350  .00000007  00000-0  18531-4 0  9997,2 53032  53.2175 107.6711 0001533  73.1588 286.9572 15.08843167 81602,6917.871,95.437,540.796,538.675,0.0
53032.0,STARLINK-4115,PAYLOAD,2023-12-23 13:56:20,15.08844565,0.0001605,53.2174,107.3738,69.2609,290.8555,3.4233e-05,2.57e-06,0.0,0 STARLINK-4115,1 53032U 22076AY  23357.58079264  .00000257  00000-0  34233-4 0  9994,2 53032  53.2174 107.3738 0001605  69.2609 290.8555 15.08844565 81144,6917.866,95.437,540.842,538.621,0.0
53032.0,STARLINK-4115,PAYLOAD,2023-12-24 12:11:44,15.08806388,0.0001083,53.2178,103.2129,97.9842,262.1273,0.00059805,9.234e-05,0.0,0 STARLINK-4115,1 53032U 22076AY  23358.50815507  .00009234  00000-0  59805-3 0  9990,2 53032  53.2178 103.2129 0001083  97.9842 262.1273 15.08806388 81751,6917.983,95.44,540.597,539.099,0.0
53032.0,STARLINK-4115,PAYLOAD,2023-12-24 13:47:07,15.0884934,0.0001641,53.2171,102.915,65.3662,294.7501,4.8688e-05,4.87e-06,0.0,0 STARLINK-4115,1 53032U 22076AY  23358.57438839  .00000487  00000-0  48688-4 0  9995,2 53032  53.2171 102.9150 0001641  65.3662 294.7501 15.08849340 81292,6917.852,95.437,540.852,538.582,0.0
53032.0,STARLINK-4115,PAYLOAD,2023-12-25 12:02:31,15.08840217,0.0001409,53.2175,98.7492,94.2429,265.8724,2.7739e-05,1.54e-06,0.0,0 STARLINK-4115,1 53032U 22076AY  23359.50175277  .00000154  00000-0  27739-4 0  9998,2 53032  53.2175  98.7492 0001409  94.2429 265.8724 15.08840217 81909,6917.88,95.438,540.719,538.77,0.0
53032.0,STARLINK-4115,PAYLOAD,2023-12-25 13:37:54,15.08841146,0.0001475,53.2177,98.4544,90.76,269.3561,7.0988e-05,8.42e-06,0.0,0 STARLINK-4115,1 53032U 22076AY  23359.56799138  .00000842  00000-0  70988-4 0  9990,2 53032  53.2177  98.4544 0001475  90.7600 269.3561 15.08841146 81440,6917.877,95.437,540.762,538.721,0.0
53032.0,STARLINK-4115,PAYLOAD,2023-12-26 11:53:18,15.08841501,0.0001482,53.2176,94.2874,99.0646,261.0514,-1.2784e-05,-4.91e-06,0.0,0 STARLINK-4115,1 53032U 22076AY  23360.49535508 -.00000491  00000-0 -12784-4 0  9995,2 53032  53.2176  94.2874 0001482  99.0646 261.0514 15.08841501 81586,6917.876,95.437,540.766,538.716,0.0
53032.0,STARLINK-4115,PAYLOAD,2023-12-27 11:44:05,15.08840424,0.0001496,53.2176,89.8324,107.513,252.6026,5.5929e-05,6.02e-06,0.0,0 STARLINK-4115,1 53032U 22076AY  23361.48895697  .00000602  00000-0  55929-4 0  9993,2 53032  53.2176  89.8324 0001496 107.5130 252.6026 15.08840424 82201,6917.879,95.438,540.779,538.709,0.0
53032.0,STARLINK-4115,PAYLOAD,2023-12-27 13:19:28,15.08842434,0.000141,53.2175,89.535,101.9397,258.1754,6.5462e-05,7.54e-06,0.0,0 STARLINK-4115,1 53032U 22076AY  23361.55519606  .00000754  00000-0  65462-4 0  9995,2 53032  53.2175  89.5350 0001410 101.9397 258.1754 15.08842434 81745,6917.873,95.437,540.713,538.763,0.0
53032.0,STARLINK-4115,PAYLOAD,2023-12-28 13:10:16,15.08841164,0.0001501,53.2183,85.0709,86.4108,273.7056,8.8488e-05,1.121e-05,0.0,0 STARLINK-4115,1 53032U 22076AY  23362.54879958  .00001121  00000-0  88488-4 0  9996,2 53032  53.2183  85.0709 0001501  86.4108 273.7056 15.08841164 81894,6917.877,95.437,540.78,538.703,0.0
53032.0,STARLINK-4115,PAYLOAD,2023-12-29 13:01:03,15.08843052,0.0001675,53.2185,80.6129,64.8387,295.2779,5.7811e-05,6.32e-06,0.0,0 STARLINK-4115,1 53032U 22076AY  23363.54240174  .00000632  00000-0  57811-4 0  9991,2 53032  53.2185  80.6129 0001675  64.8387 295.2779 15.08843052 82041,6917.871,95.437,540.895,538.577,0.0
53032.0,STARLINK-4115,PAYLOAD,2023-12-30 11:16:27,15.08843978,0.0001868,53.2187,76.4502,65.4077,294.711,7.179e-05,8.55e-06,0.0,0 STARLINK-4115,1 53032U 22076AY  23364.46976078  .00000855  00000-0  71790-4 0  9991,2 53032  53.2187  76.4502 0001868  65.4077 294.7110 15.08843978 82655,6917.868,95.437,541.025,538.441,0.0
53032.0,STARLINK-4115,PAYLOAD,2023-12-31 11:07:14,15.0883837,0.0001826,53.2185,71.9896,69.388,290.7308,2.2747e-05,7.4e-07,0.0,0 STARLINK-4115,1 53032U 22076AY  23365.46336558  .00000074  00000-0  22747-4 0  9996,2 53032  53.2185  71.9896 0001826  69.3880 290.7308 15.08838370 82800,6917.885,95.438,541.014,538.487,0.0
53032.0,STARLINK-4115,PAYLOAD,2024-01-01 10:58:01,15.0884004,0.0001659,53.2182,67.5289,86.1961,273.9221,3.8778e-05,3.29e-06,0.0,0 STARLINK-4115,1 53032U 22076AY  24001.45696290  .00000329  00000-0  38778-4 0  9999,2 53032  53.2182  67.5289 0001659  86.1961 273.9221 15.08840040 82483,6917.88,95.438,540.893,538.598,0.0
53032.0,STARLINK-4115,PAYLOAD,2024-01-01 23:41:06,15.08836851,0.0001616,53.2175,65.1501,87.0551,273.0626,6.116e-05,6.85e-06,0.0,0 STARLINK-4115,1 53032U 22076AY  24001.98688422  .00000685  00000-0  61160-4 0  9991,2 53032  53.2175  65.1501 0001616  87.0551 273.0626 15.08836851 83031,6917.89,95.438,540.873,538.637,0.0
53032.0,STARLINK-4115,PAYLOAD,2024-01-02 10:48:48,15.08840433,0.0001664,53.2181,63.0685,100.2667,259.8512,8.5361e-05,1.071e-05,0.0,0 STARLINK-4115,1 53032U 22076AY  24002.45056138  .00001071  00000-0  85361-4 0  9996,2 53032  53.2181  63.0685 0001664 100.2667 259.8512 15.08840433 82639,6917.879,95.438,540.895,538.593,0.0
53032.0,STARLINK-4115,PAYLOAD,2024-01-03 04:18:03,15.08830019,0.0001699,53.2179,59.7985,97.1891,262.9294,1.4149e-05,-6.3e-07,0.0,0 STARLINK-4115,1 53032U 22076AY  24003.17921149 -.00000063  00000-0  14149-4 0  9996,2 53032  53.2179  59.7985 0001699  97.1891 262.9294 15.08830019 83218,6917.911,95.438,540.951,538.601,0.0
53032.0,STARLINK-4115,PAYLOAD,2024-01-03 09:04:13,15.08832597,0.000156,53.2179,58.9058,91.3328,268.7843,-6.6902e-06,-3.94e-06,0.0,0 STARLINK-4115,1 53032U 22076AY  24003.37793154 -.00000394  00000-0 -66902-5 0  9994,2 53032  53.2179  58.9058 0001560  91.3328 268.7843 15.08832597 82775,6917.903,95.438,540.847,538.689,0.0
53032.0,STARLINK-4115,PAYLOAD,2024-01-03 23:22:41,15.08836578,0.0001462,53.2174,56.2277,95.7289,264.387,2.2949e-05,7.7e-07,0.0,0 STARLINK-4115,1 53032U 22076AY  24003.97408942  .00000077  00000-0  22949-4 0  9996,2 53032  53.2174  56.2277 0001462  95.7289 264.3870 15.08836578 83337,6917.891,95.438,540.767,538.744,0.0
53032.0,STARLINK-4115,PAYLOAD,2024-01-04 10:30:23,15.08837548,0.0001642,53.2171,54.1452,106.3343,253.783,4.073e-05,3.6e-06,0.0,0 STARLINK-4115,1 53032U 22076AY  24004.43776874  .00000360  00000-0  40730-4 0  9993,2 53032  53.2171  54.1452 0001642 106.3343 253.7830 15.08837548 82937,6917.888,95.438,540.889,538.617,0.0
53032.0,STARLINK-4115,PAYLOAD,2024-01-05 11:56:34,15.08834112,0.0001463,53.2176,49.3876,90.377,269.7389,4.3348e-05,4.02e-06,0.0,0 STARLINK-4115,1 53032U 22076AY  24005.49761614  .00000402  00000-0  43348-4 0  9991,2 53032  53.2176  49.3876 0001463  90.3770 269.7389 15.08834112 83565,6917.898,95.438,540.775,538.751,0.0
53032.0,STARLINK-4115,PAYLOAD,2024-01-06 10:11:57,15.08845088,0.0001467,53.2172,45.2237,97.2169,262.899,0.00011652,1.567e-05,0.0,0 STARLINK-4115,1 53032U 22076AY  24006.42496775  .00001567  00000-0  11652-3 0  9993,2 53032  53.2172  45.2237 0001467  97.2169 262.8990 15.08845088 83701,6917.865,95.437,540.745,538.715,0.0
53032.0,STARLINK-4115,PAYLOAD,2024-01-06 22:55:02,15.08843613,0.0001329,53.2169,42.8448,93.9413,266.1731,5.7403e-05,6.26e-06,0.0,0 STARLINK-4115,1 53032U 22076AY  24006.95489044  .00000626  00000-0  57403-4 0  9992,2 53032  53.2169  42.8448 0001329  93.9413 266.1731 15.08843613 83786,6917.869,95.437,540.654,538.815,0.0
53032.0,STARLINK-4115,PAYLOAD,2024-01-07 11:38:07,15.08847042,0.0001341,53.2169,40.4644,93.6974,266.4171,9.6266e-05,1.245e-05,0.0,0 STARLINK-4115,1 53032U 22076AY  24007.48480570  .00001245  00000-0  96266-4 0  9994,2 53032  53.2169  40.4644 0001341  93.6974 266.4171 15.08847042 83399,6917.859,95.437,540.652,538.796,0.0
